[{"OBJECT_NAME":"STARLINK-32132","OBJECT_ID":"2024-136F","EPOCH":"2026-03-09T10:30:35.473248","MEAN_MOTION":15.30217391,"ECCENTRICITY":0.00010133,"INCLINATION":53.16,"RA_OF_ASC_NODE":77.0019,"ARG_OF_PERICENTER":72.716,"MEAN_ANOMALY":287.3952,"EPHEMERIS_TYPE":0,"CLASSIFICATION_TYPE":"U","NORAD_CAT_ID":60334,"ELEMENT_SET_NO":999,"REV_AT_EPOCH":8962,"BSTAR":-0.00012851986,"MEAN_MOTION_DOT":-4.165e-5,"MEAN_MOTION_DDOT":0},{"OBJECT_NAME":"SCS-01 B","OBJECT_ID":"2025-100B","EPOCH":"2026-03-09T21:49:11.508672","MEAN_MOTION":15.3317485,"ECCENTRICITY":0.00088698,"INCLINATION":97.3706,"RA_OF_ASC_NODE":145.9041,"ARG_OF_PERICENTER":288.6157,"MEAN_ANOMALY":71.4122,"EPHEMERIS_TYPE":0,"CLASSIFICATION_TYPE":"U","NORAD_CAT_ID":63983,"ELEMENT_SET_NO":999,"REV_AT_EPOCH":4567,"BSTAR":0.00098809397,"MEAN_MOTION_DOT":0.00031724,"MEAN_MOTION_DDOT":0}]
